{
  "norad_id": 40890,
  "name": "GSAT0206 (GALILEO 10)",
  "history": [
    {
      "epoch": "2026-03-27T22:07:45.754176Z",
      "apogee_km": 23231.130531426013,
      "perigee_km": 23213.287442864967,
      "latitude_deg": 2.223480687803204e-05,
      "longitude_deg": 66.54261495643752,
      "height_km": 23216.599401865897,
      "semi_major_axis_km": 29600.34598714549,
      "eccentricity": 0.0003014,
      "inclination_deg": 54.972,
      "raan_deg": 223.8461,
      "arg_perigee_deg": 48.8202,
      "mean_anomaly_deg": 311.153,
      "mean_motion_rev_day": 1.70473776
    }
  ]
}